STARLINK-30069          
1 56834U 23079M   26067.48212902 -.00002416  00000+0 -80472-4 0  9995
2 56834  42.9986 110.4464 0000469 272.6695  87.4103 15.26726881152740
STARLINK-32640          
1 62198U 24229G   26068.55914773  .00025875  00000+0  94615-3 0  9992
2 62198  42.9959 271.2603 0000876 169.5848 190.5022 15.27592769 70547
